OBJECT_NAME,OBJECT_ID,EPOCH,MEAN_MOTION,ECCENTRICITY,INCLINATION,RA_OF_ASC_NODE,ARG_OF_PERICENTER,MEAN_ANOMALY,EPHEMERIS_TYPE,CLASSIFICATION_TYPE,NORAD_CAT_ID,ELEMENT_SET_NO,REV_AT_EPOCH,BSTAR,MEAN_MOTION_DOT,MEAN_MOTION_DDOT
BEIDOU-3S IGSO-1S (C31),2015-019A,2026-07-02T19:12:21.705408,1.00680073,.00768606,49.1798,295.2769,219.1125,144.2493,0,U,40549,999,4123,0,-.19E-5,0
GPS BIIF-10 (PRN 08),2015-033A,2026-07-04T16:07:37.677504,2.00555354,.01152136,53.9691,266.3653,30.2668,330.4655,0,U,40730,999,8034,0,-.8E-7,0
BEIDOU-3S M2S (C58),2015-037A,2026-07-04T12:08:18.034656,1.86232509,.00090597,54.8539,301.4503,257.7221,102.2005,0,U,40748,999,7444,0,-.58E-6,0
BEIDOU-3S M1S (C57),2015-037B,2026-07-04T04:10:48.257760,1.86254939,.00029949,54.8513,301.4491,63.1742,296.8797,0,U,40749,999,7444,0,-.58E-6,0
GSAT0206 (GALILEO 10),2015-045B,2026-07-03T21:09:31.263840,1.70473649,.00019568,54.9411,221.1433,327.0241,33.0412,0,U,40890,999,6732,0,.74E-6,0
BEIDOU-3S IGSO-2S (C56),2015-053A,2026-07-04T20:28:22.719072,1.00255661,.00657379,49.1939,258.5724,193.1388,232.3570,0,U,40938,999,3953,0,-.105E-5,0
GPS BIIF-11 (PRN 10),2015-062A,2026-07-04T05:29:20.666688,2.00567024,.0112434,56.9708,30.1551,230.9350,128.1122,0,U,41019,999,7817,0,-.56E-6,0
GSAT-15 (GAGAN/PRN 139),2015-065A,2026-07-05T02:20:38.700960,1.00271667,.00041217,0.0383,241.5867,203.6769,326.4882,0,U,41028,999,3897,0,-.245E-5,0
GSAT0209 (GALILEO 12),2015-079A,2026-07-04T15:16:27.577056,1.70473787,.00050673,55.8369,100.7834,348.6925,11.3144,0,U,41174,999,6507,0,0,0
GSAT0208 (GALILEO 11),2015-079B,2026-07-01T22:10:17.474304,1.70473736,.0004614,55.8336,100.8547,354.4374,5.5610,0,U,41175,999,6544,0,-.13E-6,0
IRNSS-1E,2016-003A,2026-06-29T19:51:21.425184,1.00272765,.00192006,33.2608,59.5670,178.7998,89.1855,0,U,41241,999,3820,0,-.31E-5,0
GPS BIIF-12 (PRN 32),2016-007A,2026-07-03T19:43:46.154208,2.00575935,.00960592,55.5329,88.8003,247.4210,111.5990,0,U,41328,999,7617,0,-.8E-7,0
COSMOS 2514 (751),2016-008A,2026-07-03T17:01:22.096992,2.13102677,.00119211,65.0109,312.4399,199.8976,160.0650,0,U,41330,999,8097,0,-.44E-6,0
BEIDOU-2 IGSO-6 (C13),2016-021A,2026-06-26T02:38:38.671584,1.00258926,.0057558,60.2385,37.9495,231.0163,137.2672,0,U,41434,999,3757,0,-.145E-5,0
IRNSS-1G,2016-027A,2026-07-04T16:12:50.781600,1.00278584,.00058099,5.2377,97.0713,7.0029,191.4017,0,U,41469,999,3735,0,-.323E-5,0
GSAT0211 (GALILEO 14),2016-030A,2026-07-04T09:27:13.570848,1.70473887,.00031197,55.0914,221.2214,320.4697,39.5831,0,U,41549,999,6296,0,.74E-6,0
GSAT0210 (GALILEO 13),2016-030B,2026-07-03T11:28:19.668288,1.70473811,.000896,55.0896,221.2446,258.8551,101.1239,0,U,41550,999,6294,0,.74E-6,0
BEIDOU-2 G7 (C03),2016-037A,2026-07-05T07:31:21.273888,1.00267815,.00066397,1.7621,69.4518,4.9721,72.2341,0,U,41586,999,707,0,-.34E-5,0
EUTELSAT 117 WEST B (WAAS/PRN 131),2016-038B,2026-07-05T04:43:45.171840,1.00271115,.00001249,0.0092,155.1834,41.2322,40.7132,0,U,41589,999,3684,0,.2E-7,0
GSAT0207 (GALILEO 15),2016-069A,2026-06-26T17:13:02.065728,1.70473700,.00050068,55.5042,100.8225,333.0982,26.8500,0,U,41859,999,5956,0,-.38E-6,0
GSAT0212 (GALILEO 16),2016-069B,2026-07-04T18:47:36.676032,1.70473848,.00044488,55.5064,100.5945,2.8841,357.1371,0,U,41860,999,5995,0,0,0
GSAT0213 (GALILEO 17),2016-069C,2026-06-28T02:40:06.685536,1.70474290,.00045371,55.5047,100.7870,315.9585,43.9839,0,U,41861,999,5970,0,-.34E-6,0
GSAT0214 (GALILEO 18),2016-069D,2026-07-04T17:02:17.631456,1.70473806,.00036591,55.5070,100.5972,326.1381,33.8570,0,U,41862,999,5994,0,-.1E-7,0
SES-15 (WAAS/PRN 133),2017-026A,2026-07-05T04:40:22.994976,1.00274474,.00009382,0.0234,325.8516,176.7364,81.5560,0,U,42709,999,761,0,.72E-6,0
QZS-2 (QZSS/PRN 194),2017-028A,2026-07-03T11:21:38.748096,1.00279734,.07585688,39.4029,242.9137,269.4566,81.7440,0,U,42738,999,778,0,-.107E-5,0
QZS-3 (QZSS/PRN 199),2017-048A,2026-07-05T00:26:31.435296,1.00267381,.00021228,0.0793,130.7698,332.9471,312.9257,0,U,42917,999,3243,0,-.335E-5,0
COSMOS 2522 (752),2017-055A,2026-07-03T13:07:38.677152,2.13102029,.001092,64.0801,191.3275,240.7350,119.1829,0,U,42939,999,6832,0,.87E-6,0
QZS-4 (QZSS/PRN 195),2017-062A,2026-07-04T07:39:32.078592,1.00294227,.07469623,40.0992,343.2689,268.3445,284.0389,0,U,42965,999,3197,0,-.31E-5,0
BEIDOU-3 M1 (C19),2017-069A,2026-07-03T05:48:06.731712,1.86231596,.000968,56.7055,62.5561,326.7179,33.2911,0,U,43001,999,5890,0,-.36E-6,0
BEIDOU-3 M2 (C20),2017-069B,2026-07-01T13:40:18.942816,1.86230997,.000873,56.7035,62.6467,353.7874,6.2692,0,U,43002,999,5886,0,-.4E-6,0
GSAT0215 (GALILEO 19),2017-079A,2026-07-04T14:42:42.307488,1.70474500,.00035499,55.0696,221.0270,263.9168,96.1170,0,U,43055,999,5328,0,.74E-6,0
